COSMOS 2433 (720)       
1 32275C 07052A   21043.99979167  .00000000  00000-0  00000-0 0   430
2 32275  66.0419  20.9173 0004736 273.3446 334.5914  2.13104370    19
COSMOS 2432 (719)       
1 32276C 07052B   21043.99979167  .00000000  00000-0  00000-0 0   431
2 32276  66.0547  21.0101 0012370 323.2936 234.2135  2.13103742    10
COSMOS 2434 (721)       
1 32393C 07065A   21043.99979167  .00000000  00000-0  00000-0 0   435
2 32393  64.4956 258.1703 0005106  75.3582  60.6241  2.13103277    10
COSMOS 2436 (723)       
1 32395C 07065C   21043.99979167  .00000000  00000-0  00000-0 0   437
2 32395  64.5045 258.2224 0016120   7.4373 264.6908  2.13103191    14
COSMOS 2456 (730)       
1 36111C 09070A   21043.99979167 -.00000001  00000-0  00000-0 0   437
2 36111  64.2563 137.8504 0003834 312.1419 356.0341  2.13099142    11
COSMOS 2457 (733)       
1 36112C 09070B   21043.99979167 -.00000001  00000-0  00000-0 0   438
2 36112  64.2389 137.7383 0005479 169.6265 261.9364  2.13101336    11
COSMOS 2459 (731)       
1 36400C 10007A   21043.99979167  .00000000  00000-0  00000-0 0   438
2 36400  65.9363  19.8230 0021075   0.5851 105.4234  2.13103865    13
COSMOS 2460 (732)       
1 36402C 10007C   21043.99979167  .00000000  00000-0  00000-0 0   430
2 36402  65.9234  19.7818 0002454 301.4253 108.1540  2.13106671    10
COSMOS 2464 (736)       
1 37139C 10041C   21043.99979167  .00000000  00000-0  00000-0 0   436
2 37139  64.0951 257.4892 0029158  14.0245 343.7975  2.13100846    12
COSMOS 2476 (744)       
1 37867C 11064A   21043.99979167 -.00000001  00000-0  00000-0 0   432
2 37867  64.5527 139.0146 0020588 236.8167 332.6328  2.13101751    11
COSMOS 2477 (745)       
1 37868C 11064B   21043.99979167 -.00000001  00000-0  00000-0 0   433
2 37868  64.5607 139.0738 0018013 237.8196 150.0178  2.13101631    13
COSMOS 2475 (743)       
1 37869C 11064C   21043.99979167 -.00000001  00000-0  00000-0 0   434
2 37869  64.5681 139.0775 0021895 258.3078  87.1241  2.13101783    15
COSMOS 2485 (747)       
1 39155C 13019A   21043.99979167 -.00000001  00000-0  00000-0 0   436
2 39155  64.7194 139.3364 0021065 232.5566  21.4012  2.13101769    19
COSMOS 2492 (754)       
1 39620C 14012A   21043.99979167  .00000000  00000-0  00000-0 0   435
2 39620  65.8121  19.5312 0015512 320.9623 327.9115  2.13103337    17
COSMOS 2500 (755)       
1 40001C 14032A   21043.99979167  .00000000  00000-0  00000-0 0   432
2 40001  65.7525  19.4289 0006469 227.2496 281.5512  2.13102632    12
COSMOS 2501 (702)       
1 40315C 14075A   21043.99979167  .00000000  00000-0  00000-0 0   437
2 40315  63.8085 258.3439 0015413 207.2052 107.4868  2.13101473    18
COSMOS 2514 (751)       
1 41330C 16008A   21043.99979167  .00000000  00000-0  00000-0 0   433
2 41330  65.5546  19.2419 0010323 227.9117 103.7965  2.13102993    10
COSMOS 2516 (753)       
1 41554C 16032A   21043.99979167  .00000000  00000-0  00000-0 0   438
2 41554  64.7705 258.0380 0005199 253.8160 332.3640  2.13103135    16
COSMOS 2522 (752)       
1 42939C 17055A   21043.99979167  .00000000  00000-0  00000-0 0   432
2 42939  64.2664 258.7336 0004949 252.2399 197.4149  2.13102140    19
COSMOS 2527 (756)       
1 43508C 18053A   21043.99979167 -.00000001  00000-0  00000-0 0   436
2 43508  64.8835 139.2342 0007965 229.7171 251.9385  2.13102546    14
COSMOS 2529 (757)       
1 43687C 18086A   21043.99979167  .00000000  00000-0  00000-0 0   438
2 43687  64.4804 258.9180 0007829 281.6188 123.5919  2.13102185    13
COSMOS 2534 (758)       
1 44299C 19030A   21043.99979167  .00000000  00000-0  00000-0 0   438
2 44299  64.5510 258.7572 0011405 300.1045 240.0022  2.13102228    13
COSMOS 2544 (759)       
1 44850C 19088A   21043.99979167 -.00000001  00000-0  00000-0 0   436
2 44850  64.8680 139.0970 0011913 261.8156 263.7043  2.13102252    12
COSMOS 2545 (760)       
1 45358C 20018A   21043.99979167  .00000000  00000-0  00000-0 0   433
2 45358  64.8854  20.2530 0010702 260.5406 115.1589  2.13102854    14
